{"type": "FeatureCollection", "features": [{"type": "Feature", "properties": {"norad_id": 22675, "name": "COSMOS 2251", "group": "cosmos-2251-debris", "lat": -58.832914925108895, "lon": -77.31654023795639, "alt_km": 789.3368653108137, "timestamp": "2025-12-15T10:55:21.536981+00:00", "meta": {"OBJECT_NAME": "COSMOS 2251", "OBJECT_ID": "1993-036A", "EPOCH": "2025-12-14T21:48:46.837152", "MEAN_MOTION": 14.3320541, "ECCENTRICITY": 0.0024056, "INCLINATION": 74.0398, "RA_OF_ASC_NODE": 311.92, "ARG_OF_PERICENTER": 33.572, "MEAN_ANOMALY": 326.6949, "EPHEMERIS_TYPE": 0, "CLASSIFICATION_TYPE": "U", "NORAD_CAT_ID": 22675, "ELEMENT_SET_NO": 999, "REV_AT_EPOCH": 69804, "BSTAR": 5.5544953e-05, "MEAN_MOTION_DOT": 1.27e-06, "MEAN_MOTION_DDOT": 0}, "tle": {"line1": "1 22675U 93036A   25348.90887543  .00000127  00000+0  55545-4 0  9996", "line2": "2 22675  74.0398 311.9200 0024056  33.5720 326.6949 14.33205410698047"}}, "geometry": {"type": "Point", "coordinates": [-77.31654023795639, -58.832914925108895]}}, {"type": "Feature", "properties": {"norad_id": 33757, "name": "COSMOS 2251 DEB", "group": "cosmos-2251-debris", "lat": -28.66308383514884, "lon": -50.349070882297426, "alt_km": 777.6231850365839, "timestamp": "2025-12-15T10:55:21.537008+00:00", "meta": {"OBJECT_NAME": "COSMOS 2251 DEB", "OBJECT_ID": "1993-036E", "EPOCH": "2025-12-14T21:48:39.730752", "MEAN_MOTION": 14.3258152, "ECCENTRICITY": 0.00153357, "INCLINATION": 74.0369, "RA_OF_ASC_NODE": 319.6498, "ARG_OF_PERICENTER": 332.568, "MEAN_ANOMALY": 61.2233, "EPHEMERIS_TYPE": 0, "CLASSIFICATION_TYPE": "U", "NORAD_CAT_ID": 33757, "ELEMENT_SET_NO": 999, "REV_AT_EPOCH": 88027, "BSTAR": 5.046478e-05, "MEAN_MOTION_DOT": 1.11e-06, "MEAN_MOTION_DDOT": 0}, "tle": {"line1": "1 33757U 93036E   25348.90879318  .00000111  00000+0  50465-4 0  9999", "line2": "2 33757  74.0369 319.6498 0015335 332.5680  61.2233 14.32581520880273"}}, "geometry": {"type": "Point", "coordinates": [-50.349070882297426, -28.66308383514884]}}, {"type": "Feature", "properties": {"norad_id": 33758, "name": "COSMOS 2251 DEB", "group": "cosmos-2251-debris", "lat": 70.44341491493012, "lon": -23.81634205764613, "alt_km": 725.4832589738189, "timestamp": "2025-12-15T10:55:21.537023+00:00", "meta": {"OBJECT_NAME": "COSMOS 2251 DEB", "OBJECT_ID": "1993-036F", "EPOCH": "2025-12-14T18:14:27.460320", "MEAN_MOTION": 14.51609705, "ECCENTRICITY": 0.00173498, "INCLINATION": 74.0278, "RA_OF_ASC_NODE": 211.2245, "ARG_OF_PERICENTER": 277.9037, "MEAN_ANOMALY": 152.695, "EPHEMERIS_TYPE": 0, "CLASSIFICATION_TYPE": "U", "NORAD_CAT_ID": 33758, "ELEMENT_SET_NO": 999, "REV_AT_EPOCH": 88334, "BSTAR": 0.0007133013, "MEAN_MOTION_DOT": 2.836e-05, "MEAN_MOTION_DDOT": 0}, "tle": {"line1": "1 33758U 93036F   25348.76004005  .00002836  00000+0  71330-3 0  9996", "line2": "2 33758  74.0278 211.2245 0017349 277.9037 152.6950 14.51609705883344"}}, "geometry": {"type": "Point", "coordinates": [-23.81634205764613, 70.44341491493012]}}, {"type": "Feature", "properties": {"norad_id": 33760, "name": "COSMOS 2251 DEB", "group": "cosmos-2251-debris", "lat": -62.65738165993874, "lon": 130.0963295647278, "alt_km": 788.1628432401367, "timestamp": "2025-12-15T10:55:21.537036+00:00", "meta": {"OBJECT_NAME": "COSMOS 2251 DEB", "OBJECT_ID": "1993-036H", "EPOCH": "2025-12-14T22:23:11.728896", "MEAN_MOTION": 14.35674173, "ECCENTRICITY": 0.00199605, "INCLINATION": 74.0322, "RA_OF_ASC_NODE": 277.4314, "ARG_OF_PERICENTER": 15.2073, "MEAN_ANOMALY": 53.8722, "EPHEMERIS_TYPE": 0, "CLASSIFICATION_TYPE": "U", "NORAD_CAT_ID": 33760, "ELEMENT_SET_NO": 999, "REV_AT_EPOCH": 88156, "BSTAR": 0.0001163524, "MEAN_MOTION_DOT": 3.1e-06, "MEAN_MOTION_DDOT": 0}, "tle": {"line1": "1 33760U 93036H   25348.93277464  .00000310  00000+0  11635-3 0  9996", "line2": "2 33760  74.0322 277.4314 0019960  15.2073  53.8722 14.35674173881566"}}, "geometry": {"type": "Point", "coordinates": [130.0963295647278, -62.65738165993874]}}, {"type": "Feature", "properties": {"norad_id": 33761, "name": "COSMOS 2251 DEB", "group": "cosmos-2251-debris", "lat": -59.259267219827045, "lon": 95.8956981659888, "alt_km": 754.9716883580522, "timestamp": "2025-12-15T10:55:21.537049+00:00", "meta": {"OBJECT_NAME": "COSMOS 2251 DEB", "OBJECT_ID": "1993-036J", "EPOCH": "2025-12-14T19:04:40.345824", "MEAN_MOTION": 14.42552958, "ECCENTRICITY": 0.00231244, "INCLINATION": 74.0367, "RA_OF_ASC_NODE": 248.3497, "ARG_OF_PERICENTER": 328.3279, "MEAN_ANOMALY": 88.1057, "EPHEMERIS_TYPE": 0, "CLASSIFICATION_TYPE": "U", "NORAD_CAT_ID": 33761, "ELEMENT_SET_NO": 999, "REV_AT_EPOCH": 88264, "BSTAR": 0.00045987729, "MEAN_MOTION_DOT": 1.504e-05, "MEAN_MOTION_DDOT": 0}, "tle": {"line1": "1 33761U 93036J   25348.79491141  .00001504  00000+0  45988-3 0  9995", "line2": "2 33761  74.0367 248.3497 0023124 328.3279  88.1057 14.42552958882644"}}, "geometry": {"type": "Point", "coordinates": [95.8956981659888, -59.259267219827045]}}, {"type": "Feature", "properties": {"norad_id": 33762, "name": "COSMOS 2251 DEB", "group": "cosmos-2251-debris", "lat": 13.318265036323181, "lon": 121.17885754798341, "alt_km": 790.3739996872227, "timestamp": "2025-12-15T10:55:21.537061+00:00", "meta": {"OBJECT_NAME": "COSMOS 2251 DEB", "OBJECT_ID": "1993-036K", "EPOCH": "2025-12-14T07:55:14.949696", "MEAN_MOTION": 14.33664394, "ECCENTRICITY": 0.00150662, "INCLINATION": 74.0418, "RA_OF_ASC_NODE": 307.1189, "ARG_OF_PERICENTER": 8.1757, "MEAN_ANOMALY": 113.3893, "EPHEMERIS_TYPE": 0, "CLASSIFICATION_TYPE": "U", "NORAD_CAT_ID": 33762, "ELEMENT_SET_NO": 999, "REV_AT_EPOCH": 88070, "BSTAR": 7.5244323e-05, "MEAN_MOTION_DOT": 1.83e-06, "MEAN_MOTION_DDOT": 0}, "tle": {"line1": "1 33762U 93036K   25348.33003414  .00000183  00000+0  75244-4 0  9999", "line2": "2 33762  74.0418 307.1189 0015066   8.1757 113.3893 14.33664394880706"}}, "geometry": {"type": "Point", "coordinates": [121.17885754798341, 13.318265036323181]}}, {"type": "Feature", "properties": {"norad_id": 33764, "name": "COSMOS 2251 DEB", "group": "cosmos-2251-debris", "lat": 2.868844231750453, "lon": -91.53451536987994, "alt_km": 773.29822328317, "timestamp": "2025-12-15T10:55:21.537073+00:00", "meta": {"OBJECT_NAME": "COSMOS 2251 DEB", "OBJECT_ID": "1993-036M", "EPOCH": "2025-12-14T21:53:12.842016", "MEAN_MOTION": 14.39515004, "ECCENTRICITY": 0.00238391, "INCLINATION": 74.0336, "RA_OF_ASC_NODE": 268.646, "ARG_OF_PERICENTER": 234.0067, "MEAN_ANOMALY": 195.2443, "EPHEMERIS_TYPE": 0, "CLASSIFICATION_TYPE": "U", "NORAD_CAT_ID": 33764, "ELEMENT_SET_NO": 999, "REV_AT_EPOCH": 88188, "BSTAR": 0.00034791329, "MEAN_MOTION_DOT": 1.062e-05, "MEAN_MOTION_DDOT": 0}, "tle": {"line1": "1 33764U 93036M   25348.91195419  .00001062  00000+0  34791-3 0  9990", "line2": "2 33764  74.0336 268.6460 0023839 234.0067 195.2443 14.39515004881880"}}, "geometry": {"type": "Point", "coordinates": [-91.53451536987994, 2.868844231750453]}}, {"type": "Feature", "properties": {"norad_id": 33765, "name": "COSMOS 2251 DEB", "group": "cosmos-2251-debris", "lat": 18.860857512625536, "lon": -18.130735970441854, "alt_km": 542.3077960207002, "timestamp": "2025-12-15T10:55:21.537084+00:00", "meta": {"OBJECT_NAME": "COSMOS 2251 DEB", "OBJECT_ID": "1993-036N", "EPOCH": "2025-12-14T21:48:18.080640", "MEAN_MOTION": 15.10139315, "ECCENTRICITY": 0.00651166, "INCLINATION": 74.008, "RA_OF_ASC_NODE": 168.6216, "ARG_OF_PERICENTER": 260.382, "MEAN_ANOMALY": 170.4321, "EPHEMERIS_TYPE": 0, "CLASSIFICATION_TYPE": "U", "NORAD_CAT_ID": 33765, "ELEMENT_SET_NO": 999, "REV_AT_EPOCH": 89651, "BSTAR": 0.0012084787, "MEAN_MOTION_DOT": 0.00020747, "MEAN_MOTION_DDOT": 0}, "tle": {"line1": "1 33765U 93036N   25348.90854260  .00020747  00000+0  12085-2 0  9998", "line2": "2 33765  74.0080 168.6216 0065116 260.3820 170.4321 15.10139315896511"}}, "geometry": {"type": "Point", "coordinates": [-18.130735970441854, 18.860857512625536]}}, {"type": "Feature", "properties": {"norad_id": 33766, "name": "COSMOS 2251 DEB", "group": "cosmos-2251-debris", "lat": -0.24350674680133857, "lon": 129.97935229322002, "alt_km": 736.9483340800289, "timestamp": "2025-12-15T10:55:21.537095+00:00", "meta": {"OBJECT_NAME": "COSMOS 2251 DEB", "OBJECT_ID": "1993-036P", "EPOCH": "2025-12-14T19:51:53.606592", "MEAN_MOTION": 14.34941069, "ECCENTRICITY": 0.00642644, "INCLINATION": 74.1856, "RA_OF_ASC_NODE": 131.1873, "ARG_OF_PERICENTER": 333.989, "MEAN_ANOMALY": 25.8037, "EPHEMERIS_TYPE": 0, "CLASSIFICATION_TYPE": "U", "NORAD_CAT_ID": 33766, "ELEMENT_SET_NO": 999, "REV_AT_EPOCH": 87775, "BSTAR": 0.00046907585, "MEAN_MOTION_DOT": 1.341e-05, "MEAN_MOTION_DDOT": 0}, "tle": {"line1": "1 33766U 93036P   25348.82770378  .00001341  00000+0  46908-3 0  9998", "line2": "2 33766  74.1856 131.1873 0064264 333.9890  25.8037 14.34941069877759"}}, "geometry": {"type": "Point", "coordinates": [129.97935229322002, -0.24350674680133857]}}, {"type": "Feature", "properties": {"norad_id": 33768, "name": "COSMOS 2251 DEB", "group": "cosmos-2251-debris", "lat": -69.20977728770733, "lon": 84.27898441640316, "alt_km": 1160.0544882494905, "timestamp": "2025-12-15T10:55:21.537106+00:00", "meta": {"OBJECT_NAME": "COSMOS 2251 DEB", "OBJECT_ID": "1993-036R", "EPOCH": "2025-12-14T21:43:37.485408", "MEAN_MOTION": 13.58456551, "ECCENTRICITY": 0.03664328, "INCLINATION": 74.0677, "RA_OF_ASC_NODE": 216.3729, "ARG_OF_PERICENTER": 13.6406, "MEAN_ANOMALY": 78.7891, "EPHEMERIS_TYPE": 0, "CLASSIFICATION_TYPE": "U", "NORAD_CAT_ID": 33768, "ELEMENT_SET_NO": 999, "REV_AT_EPOCH": 83325, "BSTAR": 0.00034554214, "MEAN_MOTION_DOT": 3.69e-06, "MEAN_MOTION_DDOT": 0}, "tle": {"line1": "1 33768U 93036R   25348.90529497  .00000369  00000+0  34554-3 0  9996", "line2": "2 33768  74.0677 216.3729 0366432  13.6406  78.7891 13.58456551833258"}}, "geometry": {"type": "Point", "coordinates": [84.27898441640316, -69.20977728770733]}}]}